XRISM                   
1 57800U 23137A   24170.55795861  .00004886  00000+0  36481-3 0  9996
2 57800  31.0045   3.8895 0009482 223.6267 136.3620 15.01240557 42815
